openbareruimtenaam;verkorteopenbareruimtenaam;openbareruimte_id;huisnummer;huisletter;huisnummertoevoeging;postcode;nummeraanduiding_id;woonplaats;woonplaatscode;gemeente;gemeentecode;provincienaam;provinciecode;nevenadres;typeadresseerbaarobject;adresseerbaarobject_status;opp_adresseerbaarobject_m2;aantal_nad_per_adresobject;adresseerbaarobject_id;x;y;lon;lat;woonfunctie;bijeenkomstfunctie;celfunctie;gezondheidszorgfunctie;industriefunctie;kantoorfunctie;logiesfunctie;onderwijsfunctie;sportfunctie;winkelfunctie;overige_gebruiksfunctie;aantal_pand_relaties_dit_vbo;pand_id;aantal_vbo_relaties_dit_pnd;vbo_pnd_1_op_1;opp_pand;woningtype;omtrek_pand;verhouding_opp_vbo_opp_pnd;pandstatus;bouwjaar;uniq_key;pchnhlht;pchnhlht_uniek;pchn_uniek;rangorde_pchn
De Ruijterkade;;0363300000006091;105;;1;1011AB;0363200000081086;Amsterdam;1024;Amsterdam;0363;Noord-Holland;27;0;Verblijfsobject;Verblijfsobject in gebruik;1;1;0363010000964973;122177;487877;4.905167;52.377780;0;0;0;0;0;1;0;0;0;0;0;1;0363100012181960;7;0;228;;64;1.11;Pand in gebruik;1005;1011AB-105-0-1-0363300000006091;1011AB-105-0-1;1;0;3
De Ruijterkade;;0363300000006091;105;;2;1011AB;0363200000081087;Amsterdam;1024;Amsterdam;0363;Noord-Holland;27;0;Verblijfsobject;Verblijfsobject in gebruik;96;1;0363010000784610;122177;487877;4.905167;52.377780;1;0;0;0;0;0;0;0;0;0;0;1;0363100012181960;7;0;228;Appartement;64;1.11;Pand in gebruik;1005;1011AB-105-0-2-0363300000006091;1011AB-105-0-2;1;0;1
De Ruijterkade;;0363300000006091;105;;3;1011AB;0363200000081088;Amsterdam;1024;Amsterdam;0363;Noord-Holland;27;0;Verblijfsobject;Verblijfsobject in gebruik;1;1;0363010000977861;122177;487877;4.905167;52.377780;1;0;0;0;0;0;0;0;0;0;0;1;0363100012181960;7;0;228;Appartement;64;1.11;Pand in gebruik;1005;1011AB-105-0-3-0363300000006091;1011AB-105-0-3;1;0;2
De Ruijterkade;;0363300000006091;105;;H;1011AB;0363200000081085;Amsterdam;1024;Amsterdam;0363;Noord-Holland;27;0;Verblijfsobject;Verblijfsobject in gebruik;1;2;0363010000785105;122177;487877;4.905167;52.377780;0;0;0;0;0;0;0;0;0;1;0;1;0363100012181960;7;0;228;;64;1.11;Pand in gebruik;1005;1011AB-105-0-H-0363300000006091;1011AB-105-0-H;1;0;4
De Ruijterkade;;0363300000006091;106;;2;1011AB;0363200000081090;Amsterdam;1024;Amsterdam;0363;Noord-Holland;27;0;Verblijfsobject;Verblijfsobject in gebruik;91;1;0363010000618793;122185;487883;4.905284;52.377834;1;0;0;0;0;0;0;0;0;0;0;1;0363100012181960;7;0;228;Appartement;64;1.11;Pand in gebruik;1005;1011AB-106-0-2-0363300000006091;1011AB-106-0-2;1;0;1
De Ruijterkade;;0363300000006091;106;;3;1011AB;0363200000081091;Amsterdam;1024;Amsterdam;0363;Noord-Holland;27;0;Verblijfsobject;Verblijfsobject in gebruik;62;1;0363010000618799;122185;487883;4.905284;52.377834;1;0;0;0;0;0;0;0;0;0;0;1;0363100012181960;7;0;228;Appartement;64;1.11;Pand in gebruik;1005;1011AB-106-0-3-0363300000006091;1011AB-106-0-3;1;0;2
De Ruijterkade;;0363300000006091;106;;H;1011AB;0363200000081089;Amsterdam;1024;Amsterdam;0363;Noord-Holland;27;1;Verblijfsobject;Verblijfsobject in gebruik;1;2;0363010000785105;122177;487877;4.905167;52.377780;0;0;0;0;0;0;0;0;0;1;0;1;0363100012181960;7;0;228;;64;1.11;Pand in gebruik;1005;1011AB-106-0-H-0363300000006091;1011AB-106-0-H;1;0;3
De Ruijterkade;;0363300000006091;107;;5;1011AB;0363200000414310;Amsterdam;1024;Amsterdam;0363;Noord-Holland;27;0;Verblijfsobject;Verblijfsobject in gebruik;1;1;0363010000618801;122192;487881;4.905387;52.377817;1;0;0;0;0;0;0;0;0;0;0;1;0363100012181958;4;0;370;Tussen of geschakelde woning;80;4.80;Pand in gebruik;1005;1011AB-107-0-5-0363300000006091;1011AB-107-0-5;1;0;1
De Ruijterkade;;0363300000006091;107;;H;1011AB;0363200000414309;Amsterdam;1024;Amsterdam;0363;Noord-Holland;27;0;Verblijfsobject;Verblijfsobject in gebruik;1;1;0363010000618800;122192;487881;4.905387;52.377817;0;0;0;0;0;0;0;0;0;0;1;1;0363100012181958;4;0;370;;80;4.80;Pand in gebruik;1005;1011AB-107-0-H-0363300000006091;1011AB-107-0-H;1;0;3
De Ruijterkade;;0363300000006091;107;;;1011AB;0363200000081092;Amsterdam;1024;Amsterdam;0363;Noord-Holland;27;0;Verblijfsobject;Verblijfsobject in gebruik;1774;1;0363010000977860;122192;487881;4.905387;52.377817;0;0;0;0;0;1;0;0;0;0;0;1;0363100012181958;4;0;370;;80;4.80;Pand in gebruik;1005;1011AB-107-0-0-0363300000006091;1011AB-107-0-0;1;0;2
De Ruijterkade;;0363300000006091;108;;3;1011AB;0363200000081094;Amsterdam;1024;Amsterdam;0363;Noord-Holland;27;0;Verblijfsobject;Verblijfsobject in gebruik;1;1;0363010000977859;122199;487879;4.905490;52.377799;0;0;0;0;0;0;0;0;0;0;1;1;0363100012181958;4;0;370;;80;4.80;Pand in gebruik;1005;1011AB-108-0-3-0363300000006091;1011AB-108-0-3;1;1;1
De Ruijterkade;;0363300000006091;110;;1;1011AB;0363200000081096;Amsterdam;1024;Amsterdam;0363;Noord-Holland;27;0;Verblijfsobject;Verblijfsobject in gebruik;97;1;0363010000948617;122207;487877;4.905607;52.377781;1;0;0;0;0;0;0;0;0;0;0;1;0363100012181959;4;0;213;Appartement;65;1.56;Pand in gebruik;1916;1011AB-110-0-1-0363300000006091;1011AB-110-0-1;1;0;1
De Ruijterkade;;0363300000006091;110;;2;1011AB;0363200000081097;Amsterdam;1024;Amsterdam;0363;Noord-Holland;27;0;Verblijfsobject;Verblijfsobject in gebruik;82;1;0363010000618803;122207;487877;4.905607;52.377781;1;0;0;0;0;0;0;0;0;0;0;1;0363100012181959;4;0;213;Appartement;65;1.56;Pand in gebruik;1916;1011AB-110-0-2-0363300000006091;1011AB-110-0-2;1;0;2
De Ruijterkade;;0363300000006091;110;;3;1011AB;0363200000081098;Amsterdam;1024;Amsterdam;0363;Noord-Holland;27;0;Verblijfsobject;Verblijfsobject in gebruik;82;1;0363010000618804;122207;487877;4.905607;52.377781;1;0;0;0;0;0;0;0;0;0;0;1;0363100012181959;4;0;213;Appartement;65;1.56;Pand in gebruik;1916;1011AB-110-0-3-0363300000006091;1011AB-110-0-3;1;0;3
De Ruijterkade;;0363300000006091;110;;H;1011AB;0363200000081095;Amsterdam;1024;Amsterdam;0363;Noord-Holland;27;0;Verblijfsobject;Verblijfsobject in gebruik;72;1;0363010000618802;122207;487877;4.905607;52.377781;1;1;0;0;0;0;0;0;0;0;0;1;0363100012181959;4;0;213;Appartement;65;1.56;Pand in gebruik;1916;1011AB-110-0-H-0363300000006091;1011AB-110-0-H;1;0;4
De Ruijterkade;;0363300000006091;112;;;1011AB;0363200000081099;Amsterdam;1024;Amsterdam;0363;Noord-Holland;27;0;Verblijfsobject;Verblijfsobject in gebruik;2416;1;0363010000618805;122219;487875;4.905784;52.377764;0;0;0;0;0;1;0;0;0;0;0;1;0363100012181957;1;1;399;;82;6.06;Pand in gebruik;1916;1011AB-112-0-0-0363300000006091;1011AB-112-0-0;1;1;1
De Ruijterkade;;0363300000006091;113;;;1011AB;0363200000081100;Amsterdam;1024;Amsterdam;0363;Noord-Holland;27;0;Verblijfsobject;Verblijfsobject in gebruik;1179;1;0363010000618806;122238;487871;4.906063;52.377729;0;0;0;0;0;1;0;0;0;0;0;1;0363100012170251;1;1;473;;88;2.49;Pand in gebruik;1916;1011AB-113-0-0-0363300000006091;1011AB-113-0-0;1;1;1
De Ruijterkade;;0363300000006091;120;;2;1011AB;0363200000081102;Amsterdam;1024;Amsterdam;0363;Noord-Holland;27;0;Verblijfsobject;Verblijfsobject in gebruik;83;1;0363010000618808;122258;487867;4.906357;52.377695;1;0;0;0;0;0;0;0;0;0;0;1;0363100012170287;2;0;542;Vrijstaande woning;93;3.25;Pand in gebruik;1916;1011AB-120-0-2-0363300000006091;1011AB-120-0-2;1;0;1
De Ruijterkade;;0363300000006091;120;;H;1011AB;0363200000081101;Amsterdam;1024;Amsterdam;0363;Noord-Holland;27;0;Verblijfsobject;Verblijfsobject in gebruik;1680;1;0363010000618807;122258;487867;4.906357;52.377695;0;0;0;0;0;1;0;0;0;0;0;1;0363100012170287;2;0;542;;93;3.25;Pand in gebruik;1916;1011AB-120-0-H-0363300000006091;1011AB-120-0-H;1;0;2
De Ruijterkade;;0363300000006091;124;;;1011AB;0363200000081103;Amsterdam;1024;Amsterdam;0363;Noord-Holland;27;0;Verblijfsobject;Verblijfsobject in gebruik;287;1;0363010000618809;122273;487863;4.906578;52.377660;0;0;0;0;0;1;0;0;0;0;0;1;0363100012170252;1;1;167;;62;1.72;Pand in gebruik;1916;1011AB-124-0-0-0363300000006091;1011AB-124-0-0;1;1;1
De Ruijterkade;;0363300000006091;125;;;1011AC;0363200011258882;Amsterdam;1024;Amsterdam;0363;Noord-Holland;27;0;Verblijfsobject;Verblijfsobject in gebruik;538;1;0363010011258949;122281;487861;4.906696;52.377642;0;0;0;0;0;1;0;0;0;0;0;1;0363100012170286;1;1;243;;78;2.21;Pand in gebruik;1005;1011AC-125-0-0-0363300000006091;1011AC-125-0-0;1;1;1
De Ruijterkade;;0363300000006091;127;;;1011AC;0363200000081106;Amsterdam;1024;Amsterdam;0363;Noord-Holland;27;0;Verblijfsobject;Verblijfsobject in gebruik;561;1;0363010000618811;122300;487858;4.906975;52.377616;0;0;0;0;1;0;0;0;0;0;0;1;0363100012164967;1;1;223;;64;2.52;Pand in gebruik;1910;1011AC-127-0-0-0363300000006091;1011AC-127-0-0;1;1;1
De Ruijterkade;;0363300000006091;128;;;1011AC;0363200000414333;Amsterdam;1024;Amsterdam;0363;Noord-Holland;27;0;Verblijfsobject;Verblijfsobject in gebruik;934;1;0363010000618812;122314;487856;4.907181;52.377599;0;0;0;0;0;1;0;0;0;0;0;1;0363100012170693;1;1;388;;80;2.41;Pand in gebruik;1924;1011AC-128-0-0-0363300000006091;1011AC-128-0-0;1;1;1
De Ruijterkade;;0363300000006091;130;;;1011AC;0363200000496670;Amsterdam;1024;Amsterdam;0363;Noord-Holland;27;0;Verblijfsobject;Verblijfsobject in gebruik;339;1;0363010001173287;122348;487802;4.907685;52.377116;0;0;0;0;0;1;0;0;0;0;0;1;0363100012170694;1;1;634;;128;0.53;Pand in gebruik;2003;1011AC-130-0-0-0363300000006091;1011AC-130-0-0;1;1;1
De Ruijterkade;;0363300000006091;139;;;1011AC;0363200000081107;Amsterdam;1024;Amsterdam;0363;Noord-Holland;27;0;Verblijfsobject;Verblijfsobject in gebruik;2186;1;0363010000618813;122341;487847;4.907578;52.377520;0;0;0;0;0;1;0;0;0;0;0;1;0363100012170692;1;1;671;;112;3.26;Pand in gebruik;1915;1011AC-139-0-0-0363300000006091;1011AC-139-0-0;1;1;1
De Ruijterkade;;0363300000006091;140;;;1011AC;0363200000081108;Amsterdam;1024;Amsterdam;0363;Noord-Holland;27;0;Verblijfsobject;Verblijfsobject in gebruik;409;1;0363010000964975;122359;487844;4.907843;52.377494;0;0;0;0;1;0;0;0;0;0;0;1;0363100012170695;1;1;242;;68;1.69;Pand in gebruik;1988;1011AC-140-0-0-0363300000006091;1011AC-140-0-0;1;1;1
De Ruijterkade;;0363300000006091;144;;;1011AC;0363200000081112;Amsterdam;1024;Amsterdam;0363;Noord-Holland;27;0;Verblijfsobject;Verblijfsobject in gebruik;202;1;0363010000618817;122386;487838;4.908240;52.377442;0;0;0;0;1;0;0;0;0;0;0;1;0363100012181307;1;1;158;;61;1.28;Pand in gebruik;1005;1011AC-144-0-0-0363300000006091;1011AC-144-0-0;1;1;1
De Ruijterkade;;0363300000006091;149;A;;1011AC;0363200003683309;Amsterdam;1024;Amsterdam;0363;Noord-Holland;27;0;Verblijfsobject;Verblijfsobject in gebruik;82;1;0363010003684518;122418;487826;4.908711;52.377336;1;0;0;0;0;0;0;0;0;0;0;1;0363100012181375;4;0;514;Appartement;136;0.82;Pand in gebruik;1916;1011AC-149-A-0-0363300000006091;1011AC-149-A-0;1;0;1
De Ruijterkade;;0363300000006091;149;B;;1011AC;0363200003683310;Amsterdam;1024;Amsterdam;0363;Noord-Holland;27;0;Verblijfsobject;Verblijfsobject in gebruik;85;1;0363010003684519;122416;487826;4.908682;52.377336;1;0;0;0;0;0;0;0;0;0;0;1;0363100012181375;4;0;514;Appartement;136;0.82;Pand in gebruik;1916;1011AC-149-B-0-0363300000006091;1011AC-149-B-0;1;0;2
De Ruijterkade;;0363300000006091;149;C;;1011AC;0363200003683311;Amsterdam;1024;Amsterdam;0363;Noord-Holland;27;0;Verblijfsobject;Verblijfsobject in gebruik;100;1;0363010003684520;122416;487826;4.908682;52.377336;1;0;0;0;0;0;0;0;0;0;0;1;0363100012181375;4;0;514;Appartement;136;0.82;Pand in gebruik;1916;1011AC-149-C-0-0363300000006091;1011AC-149-C-0;1;0;3
De Ruijterkade;;0363300000006091;150;;;1011AC;0363200000081118;Amsterdam;1024;Amsterdam;0363;Noord-Holland;27;0;Verblijfsobject;Verblijfsobject in gebruik;155;1;0363010000618822;122431;487817;4.908903;52.377256;1;0;0;0;0;0;0;0;0;0;0;1;0363100012181375;4;0;514;Appartement;136;0.82;Pand in gebruik;1916;1011AC-150-0-0-0363300000006091;1011AC-150-0-0;1;1;1
De Ruijterkade;;0363300000006091;151;;;1011AC;0363200000538636;Amsterdam;1024;Amsterdam;0363;Noord-Holland;27;0;Verblijfsobject;Verblijfsobject in gebruik;1009;2;0363010001173924;122439;487854;4.909017;52.377589;0;0;0;0;0;0;0;0;0;0;1;1;0363100012170698;4;0;2095;;198;1.89;Pand in gebruik;2009;1011AC-151-0-0-0363300000006091;1011AC-151-0-0;1;1;1
De Ruijterkade;;0363300000006091;152;;;1011AC;0363200000525612;Amsterdam;1024;Amsterdam;0363;Noord-Holland;27;0;Verblijfsobject;Verblijfsobject in gebruik;1;1;0363010001173927;122451;487822;4.909196;52.377302;0;0;0;0;0;0;0;0;0;0;1;1;0363100012170696;2;0;1393;;188;5.77;Pand in gebruik;2008;1011AC-152-0-0-0363300000006091;1011AC-152-0-0;1;1;1
De Ruijterkade;;0363300000006091;153;;;1011AC;0363200000538637;Amsterdam;1024;Amsterdam;0363;Noord-Holland;27;0;Verblijfsobject;Verblijfsobject in gebruik;966;2;0363010001173926;122463;487848;4.909370;52.377536;0;0;0;0;0;0;0;0;0;0;1;1;0363100012170698;4;0;2095;;198;1.89;Pand in gebruik;2009;1011AC-153-0-0-0363300000006091;1011AC-153-0-0;1;1;1
De Ruijterkade;;0363300000006091;154;;;1011AC;0363200000525613;Amsterdam;1024;Amsterdam;0363;Noord-Holland;27;0;Verblijfsobject;Verblijfsobject in gebruik;8038;1;0363010001173928;122467;487818;4.909431;52.377267;0;0;0;0;0;0;0;0;0;0;1;1;0363100012170696;2;0;1393;;188;5.77;Pand in gebruik;2008;1011AC-154-0-0-0363300000006091;1011AC-154-0-0;1;1;1
De Ruijterkade;;0363300000006091;155;;;1011AC;0363200001969928;Amsterdam;1024;Amsterdam;0363;Noord-Holland;27;1;Verblijfsobject;Verblijfsobject in gebruik;966;2;0363010001173926;122463;487848;4.909370;52.377536;0;0;0;0;0;0;0;0;0;0;1;1;0363100012170698;4;0;2095;;198;1.89;Pand in gebruik;2009;1011AC-155-0-0-0363300000006091;1011AC-155-0-0;1;1;1
De Ruijterkade;;0363300000006091;157;;;1011AC;0363200001969929;Amsterdam;1024;Amsterdam;0363;Noord-Holland;27;1;Verblijfsobject;Verblijfsobject in gebruik;1009;2;0363010001173924;122439;487854;4.909017;52.377589;0;0;0;0;0;0;0;0;0;0;1;1;0363100012170698;4;0;2095;;198;1.89;Pand in gebruik;2009;1011AC-157-0-0-0363300000006091;1011AC-157-0-0;1;1;1
Oosterdokskade;;0363300000004731;1;;;1011AD;0363200001983356;Amsterdam;1024;Amsterdam;0363;Noord-Holland;27;0;Verblijfsobject;Verblijfsobject gevormd;323;1;0363010001983725;122131;487769;4.904502;52.376806;0;1;0;0;0;0;0;0;0;0;0;1;0363100012237484;5;0;2646;;323;9.78;Bouw gestart;1005;1011AD-1-0-0-0363300000004731;1011AD-1-0-0;1;1;1
Oosterdokskade;;0363300000004731;3;;;1011AD;0363200001983357;Amsterdam;1024;Amsterdam;0363;Noord-Holland;27;0;Verblijfsobject;Verblijfsobject gevormd;880;1;0363010001983726;122175;487744;4.905150;52.376584;0;1;0;0;0;0;0;0;0;0;0;1;0363100012237484;5;0;2646;;323;9.78;Bouw gestart;1005;1011AD-3-0-0-0363300000004731;1011AD-3-0-0;1;1;1
Oosterdokskade;;0363300000004731;5;;;1011AD;0363200000222969;Amsterdam;1024;Amsterdam;0363;Noord-Holland;27;0;Verblijfsobject;Verblijfsobject in gebruik;30860;1;0363010000762739;122485;487642;4.909713;52.375686;0;1;0;0;0;0;0;0;0;0;0;1;0363100012164966;1;1;4251;;300;7.26;Pand in gebruik;1968;1011AD-5-0-0-0363300000004731;1011AD-5-0-0;1;1;1
Oosterdokskade;;0363300000004731;6;;;1011AE;0363200003702053;Amsterdam;1024;Amsterdam;0363;Noord-Holland;27;0;Standplaats;Plaats aangewezen;644;1;0363030003702324;122271.90189955344;487646.06448676815;4.906583;52.375710;;;;;;;;;;;;;;;;;;;;;;1011AE-6-0-0-0363300000004731;1011AE-6-0-0;1;1;1
Oosterdokskade;;0363300000004731;8;;;1011AE;0363200000513562;Amsterdam;1024;Amsterdam;0363;Noord-Holland;27;0;Ligplaats;Plaats aangewezen;872;1;0363020001025735;122322.0313892682;487601.52355890884;4.907323;52.375313;;;;;;;;;;;;;;;;;;;;;;1011AE-8-0-0-0363300000004731;1011AE-8-0-0;1;1;1
Oosterdokskade;;0363300000004731;10;;;1011AE;0363200000537787;Amsterdam;1024;Amsterdam;0363;Noord-Holland;27;0;Ligplaats;Plaats aangewezen;163;1;0363020001166951;122368.15127002979;487594.874262184;4.908001;52.375256;;;;;;;;;;;;;;;;;;;;;;1011AE-10-0-0-0363300000004731;1011AE-10-0-0;1;1;1
Oosterdokskade;;0363300000004731;30;;;1011AE;0363200011909795;Amsterdam;1024;Amsterdam;0363;Noord-Holland;27;0;Ligplaats;Plaats aangewezen;119;1;0363020011909579;122401.18624502305;487582.6581262669;4.908488;52.375148;;;;;;;;;;;;;;;;;;;;;;1011AE-30-0-0-0363300000004731;1011AE-30-0-0;1;1;1
Oosterdokskade;;0363300000004731;32;;;1011AE;0363200011909796;Amsterdam;1024;Amsterdam;0363;Noord-Holland;27;0;Ligplaats;Plaats aangewezen;71;1;0363020011909580;122424.64212314933;487574.3408791056;4.908833;52.375074;;;;;;;;;;;;;;;;;;;;;;1011AE-32-0-0-0363300000004731;1011AE-32-0-0;1;1;1
Oosterdokskade;;0363300000004731;34;;;1011AE;0363200011909797;Amsterdam;1024;Amsterdam;0363;Noord-Holland;27;0;Ligplaats;Plaats aangewezen;71;1;0363020011909581;122424.64212314933;487574.3408791056;4.908833;52.375074;;;;;;;;;;;;;;;;;;;;;;1011AE-34-0-0-0363300000004731;1011AE-34-0-0;1;1;1
Oosterdokskade;;0363300000004731;36;B;;1011AE;0363200000508410;Amsterdam;1024;Amsterdam;0363;Noord-Holland;27;0;Ligplaats;Plaats aangewezen;123;1;0363020001025674;122121.8651750285;487660.0776949662;4.904378;52.375827;;;;;;;;;;;;;;;;;;;;;;1011AE-36-B-0-0363300000004731;1011AE-36-B-0;1;1;1
Oosterdokskade;;0363300000004731;38;;;1011AE;0363200000501003;Amsterdam;1024;Amsterdam;0363;Noord-Holland;27;0;Ligplaats;Plaats aangewezen;82;1;0363020001021216;122111.07099999998;487641.227;4.904222;52.375657;;;;;;;;;;;;;;;;;;;;;;1011AE-38-0-0-0363300000004731;1011AE-38-0-0;1;1;1
Oosterdokskade;;0363300000004731;100;;;1011AE;0363200000508763;Amsterdam;1024;Amsterdam;0363;Noord-Holland;27;0;Verblijfsobject;Verblijfsobject in gebruik;150;1;0363010001025739;122557;487630;4.910771;52.375582;0;0;0;0;0;0;0;0;0;0;1;1;0363100012181645;1;1;71;;37;2.11;Pand in gebruik;2005;1011AE-100-0-0-0363300000004731;1011AE-100-0-0;1;1;1
Prins Hendrikkade;;0363300000004577;96;;;1011AG;0363200000242836;Amsterdam;1024;Amsterdam;0363;Noord-Holland;27;0;Verblijfsobject;Verblijfsobject in gebruik;115;2;0363010000783113;122010;487674;4.902734;52.375945;0;1;0;0;0;0;0;0;0;0;0;1;0363100012182599;6;0;72;;36;5.32;Pand in gebruik;1005;1011AG-96-0-0-0363300000004577;1011AG-96-0-0;1;1;1
Prins Hendrikkade;;0363300000004577;97;;;1011AG;0363200000416882;Amsterdam;1024;Amsterdam;0363;Noord-Holland;27;0;Verblijfsobject;Verblijfsobject in gebruik;141;1;0363010000949705;122018;487671;4.902852;52.375919;0;1;0;0;0;0;0;0;0;0;0;1;0363100012182597;3;0;152;;52;4.62;Pand in gebruik;1005;1011AG-97-0-0-0363300000004577;1011AG-97-0-0;1;1;1
Prins Hendrikkade;;0363300000004577;98;A;;1011AG;0363200000416883;Amsterdam;1024;Amsterdam;0363;Noord-Holland;27;0;Verblijfsobject;Verblijfsobject in gebruik;560;1;0363010000783120;122023;487669;4.902926;52.375901;0;0;0;0;0;0;0;0;0;1;0;1;0363100012182597;3;0;152;;52;4.62;Pand in gebruik;1005;1011AG-98-A-0-0363300000004577;1011AG-98-A-0;1;0;2
Prins Hendrikkade;;0363300000004577;98;B;;1011AG;0363200000416884;Amsterdam;1024;Amsterdam;0363;Noord-Holland;27;0;Verblijfsobject;Verblijfsobject in gebruik;1;1;0363010000949704;122022;487664;4.902911;52.375856;1;1;0;0;0;0;0;0;0;0;0;1;0363100012182597;3;0;152;Tussen of geschakelde woning;52;4.62;Pand in gebruik;1005;1011AG-98-B-0-0363300000004577;1011AG-98-B-0;1;0;1
Prins Hendrikkade;;0363300000004577;99;B;1;1011AG;0363200000242842;Amsterdam;1024;Amsterdam;0363;Noord-Holland;27;0;Verblijfsobject;Verblijfsobject in gebruik;1;1;0363010000783116;122026;487661;4.902970;52.375829;1;0;0;0;0;0;0;0;0;0;0;1;0363100012182600;4;0;61;Appartement;33;2.52;Pand in gebruik;1939;1011AG-99-B-1-0363300000004577;1011AG-99-B-1;1;0;1
Prins Hendrikkade;;0363300000004577;99;B;2;1011AG;0363200000242843;Amsterdam;1024;Amsterdam;0363;Noord-Holland;27;0;Verblijfsobject;Verblijfsobject in gebruik;45;1;0363010000783117;122026;487661;4.902970;52.375829;1;0;0;0;0;0;0;0;0;0;0;1;0363100012182600;4;0;61;Appartement;33;2.52;Pand in gebruik;1939;1011AG-99-B-2-0363300000004577;1011AG-99-B-2;1;0;2
Prins Hendrikkade;;0363300000004577;99;B;3;1011AG;0363200000242844;Amsterdam;1024;Amsterdam;0363;Noord-Holland;27;0;Verblijfsobject;Verblijfsobject in gebruik;1;1;0363010000783118;122026;487661;4.902970;52.375829;1;0;0;0;0;0;0;0;0;0;0;1;0363100012182600;4;0;61;Appartement;33;2.52;Pand in gebruik;1939;1011AG-99-B-3-0363300000004577;1011AG-99-B-3;1;0;3
Prins Hendrikkade;;0363300000004577;99;;;1011AG;0363200000242840;Amsterdam;1024;Amsterdam;0363;Noord-Holland;27;0;Verblijfsobject;Verblijfsobject in gebruik;107;1;0363010000966710;122029;487666;4.903014;52.375874;0;0;0;0;0;0;0;0;0;1;0;1;0363100012182600;4;0;61;;33;2.52;Pand in gebruik;1939;1011AG-99-0-0-0363300000004577;1011AG-99-0-0;1;0;4
Prins Hendrikkade;;0363300000004577;100;;1L;1011AH;0363200000479147;Amsterdam;1024;Amsterdam;0363;Noord-Holland;27;0;Verblijfsobject;Verblijfsobject in gebruik;1;1;0363010000995139;122025;487653;4.902957;52.375757;1;0;0;0;0;0;0;0;0;0;0;1;0363100012171922;7;0;111;Appartement;43;2.04;Pand in gebruik;1005;1011AH-100-0-1L-0363300000004577;1011AH-100-0-1L;1;0;1
Prins Hendrikkade;;0363300000004577;100;;1R;1011AH;0363200000479148;Amsterdam;1024;Amsterdam;0363;Noord-Holland;27;0;Verblijfsobject;Verblijfsobject in gebruik;1;1;0363010000995140;122025;487653;4.902957;52.375757;1;0;0;0;0;0;0;0;0;0;0;1;0363100012171922;7;0;111;Appartement;43;2.04;Pand in gebruik;1005;1011AH-100-0-1R-0363300000004577;1011AH-100-0-1R;1;0;2
Prins Hendrikkade;;0363300000004577;100;;2L;1011AH;0363200000479149;Amsterdam;1024;Amsterdam;0363;Noord-Holland;27;0;Verblijfsobject;Verblijfsobject in gebruik;1;1;0363010000995141;122025;487653;4.902957;52.375757;1;0;0;0;0;0;0;0;0;0;0;1;0363100012171922;7;0;111;Appartement;43;2.04;Pand in gebruik;1005;1011AH-100-0-2L-0363300000004577;1011AH-100-0-2L;1;0;3
Prins Hendrikkade;;0363300000004577;100;;2R;1011AH;0363200000479146;Amsterdam;1024;Amsterdam;0363;Noord-Holland;27;0;Verblijfsobject;Verblijfsobject in gebruik;1;1;0363010000995142;122025;487653;4.902957;52.375757;1;0;0;0;0;0;0;0;0;0;0;1;0363100012171922;7;0;111;Appartement;43;2.04;Pand in gebruik;1005;1011AH-100-0-2R-0363300000004577;1011AH-100-0-2R;1;0;4
Prins Hendrikkade;;0363300000004577;100;;3L;1011AH;0363200000479150;Amsterdam;1024;Amsterdam;0363;Noord-Holland;27;0;Verblijfsobject;Verblijfsobject in gebruik;1;1;0363010000995143;122025;487653;4.902957;52.375757;1;0;0;0;0;0;0;0;0;0;0;1;0363100012171922;7;0;111;Appartement;43;2.04;Pand in gebruik;1005;1011AH-100-0-3L-0363300000004577;1011AH-100-0-3L;1;0;5
Prins Hendrikkade;;0363300000004577;100;;3R;1011AH;0363200000479151;Amsterdam;1024;Amsterdam;0363;Noord-Holland;27;0;Verblijfsobject;Verblijfsobject in gebruik;1;1;0363010000995144;122025;487653;4.902957;52.375757;1;0;0;0;0;0;0;0;0;0;0;1;0363100012171922;7;0;111;Appartement;43;2.04;Pand in gebruik;1005;1011AH-100-0-3R-0363300000004577;1011AH-100-0-3R;1;0;6
Prins Hendrikkade;;0363300000004577;100;;H;1011AH;0363200000480068;Amsterdam;1024;Amsterdam;0363;Noord-Holland;27;0;Verblijfsobject;Verblijfsobject in gebruik;220;1;0363010000995671;122025;487653;4.902957;52.375757;0;0;0;0;0;0;0;0;0;1;0;1;0363100012171922;7;0;111;;43;2.04;Pand in gebruik;1005;1011AH-100-0-H-0363300000004577;1011AH-100-0-H;1;0;7
Prins Hendrikkade;;0363300000004577;101;A;;1011AH;0363200000453924;Amsterdam;1024;Amsterdam;0363;Noord-Holland;27;0;Verblijfsobject;Verblijfsobject in gebruik;26;1;0363010000783132;122023;487646;4.902928;52.375694;1;0;0;0;0;0;0;0;0;0;0;1;0363100012171918;3;0;43;Appartement;32;2.74;Pand in gebruik;1005;1011AH-101-A-0-0363300000004577;1011AH-101-A-0;1;0;1
Prins Hendrikkade;;0363300000004577;101;B;;1011AH;0363200000453925;Amsterdam;1024;Amsterdam;0363;Noord-Holland;27;0;Verblijfsobject;Verblijfsobject in gebruik;53;1;0363010000783133;122023;487646;4.902928;52.375694;1;0;0;0;0;0;0;0;0;0;0;1;0363100012171918;3;0;43;Appartement;32;2.74;Pand in gebruik;1005;1011AH-101-B-0-0363300000004577;1011AH-101-B-0;1;0;2
Prins Hendrikkade;;0363300000004577;101;C;;1011AH;0363200000418240;Amsterdam;1024;Amsterdam;0363;Noord-Holland;27;0;Verblijfsobject;Verblijfsobject in gebruik;39;1;0363010000783134;122023;487646;4.902928;52.375694;1;0;0;0;0;0;0;0;0;0;0;1;0363100012171918;3;0;43;Appartement;32;2.74;Pand in gebruik;1005;1011AH-101-C-0-0363300000004577;1011AH-101-C-0;1;0;3
Prins Hendrikkade;;0363300000004577;102;;1;1011AH;0363200000242856;Amsterdam;1024;Amsterdam;0363;Noord-Holland;27;0;Verblijfsobject;Verblijfsobject in gebruik;37;1;0363010000783136;122022;487642;4.902914;52.375658;1;0;0;0;0;0;0;0;0;0;0;1;0363100012182440;5;0;57;Appartement;33;3.96;Pand in gebruik;1005;1011AH-102-0-1-0363300000004577;1011AH-102-0-1;1;0;1
Prins Hendrikkade;;0363300000004577;102;;2;1011AH;0363200000242857;Amsterdam;1024;Amsterdam;0363;Noord-Holland;27;0;Verblijfsobject;Verblijfsobject in gebruik;42;1;0363010000783137;122022;487642;4.902914;52.375658;1;0;0;0;0;0;0;0;0;0;0;1;0363100012182440;5;0;57;Appartement;33;3.96;Pand in gebruik;1005;1011AH-102-0-2-0363300000004577;1011AH-102-0-2;1;0;2
Prins Hendrikkade;;0363300000004577;102;;3;1011AH;0363200000242858;Amsterdam;1024;Amsterdam;0363;Noord-Holland;27;0;Verblijfsobject;Verblijfsobject in gebruik;42;1;0363010000783138;122022;487642;4.902914;52.375658;1;0;0;0;0;0;0;0;0;0;0;1;0363100012182440;5;0;57;Appartement;33;3.96;Pand in gebruik;1005;1011AH-102-0-3-0363300000004577;1011AH-102-0-3;1;0;3
Prins Hendrikkade;;0363300000004577;102;;4;1011AH;0363200000242859;Amsterdam;1024;Amsterdam;0363;Noord-Holland;27;0;Verblijfsobject;Verblijfsobject in gebruik;41;1;0363010000783139;122022;487642;4.902914;52.375658;1;0;0;0;0;0;0;0;0;0;0;1;0363100012182440;5;0;57;Appartement;33;3.96;Pand in gebruik;1005;1011AH-102-0-4-0363300000004577;1011AH-102-0-4;1;0;4
Prins Hendrikkade;;0363300000004577;102;;H;1011AH;0363200000242855;Amsterdam;1024;Amsterdam;0363;Noord-Holland;27;0;Verblijfsobject;Verblijfsobject in gebruik;64;1;0363010000783135;122022;487642;4.902914;52.375658;0;1;0;0;0;0;0;0;0;0;0;1;0363100012182440;5;0;57;;33;3.96;Pand in gebruik;1005;1011AH-102-0-H-0363300000004577;1011AH-102-0-H;1;0;5
Prins Hendrikkade;;0363300000004577;103;;1;1011AH;0363200000242861;Amsterdam;1024;Amsterdam;0363;Noord-Holland;27;0;Verblijfsobject;Verblijfsobject in gebruik;38;1;0363010000783141;122021;487635;4.902900;52.375595;1;0;0;0;0;0;0;0;0;0;0;1;0363100012182439;4;0;67;Appartement;39;2.28;Pand in gebruik;1939;1011AH-103-0-1-0363300000004577;1011AH-103-0-1;1;0;1
Prins Hendrikkade;;0363300000004577;103;;2;1011AH;0363200000242862;Amsterdam;1024;Amsterdam;0363;Noord-Holland;27;0;Verblijfsobject;Verblijfsobject in gebruik;38;1;0363010000783142;122021;487635;4.902900;52.375595;1;0;0;0;0;0;0;0;0;0;0;1;0363100012182439;4;0;67;Appartement;39;2.28;Pand in gebruik;1939;1011AH-103-0-2-0363300000004577;1011AH-103-0-2;1;0;2
Prins Hendrikkade;;0363300000004577;103;;3;1011AH;0363200000242863;Amsterdam;1024;Amsterdam;0363;Noord-Holland;27;0;Verblijfsobject;Verblijfsobject in gebruik;38;1;0363010000783143;122021;487635;4.902900;52.375595;1;0;0;0;0;0;0;0;0;0;0;1;0363100012182439;4;0;67;Appartement;39;2.28;Pand in gebruik;1939;1011AH-103-0-3-0363300000004577;1011AH-103-0-3;1;0;3
Prins Hendrikkade;;0363300000004577;103;;H;1011AH;0363200000242860;Amsterdam;1024;Amsterdam;0363;Noord-Holland;27;0;Verblijfsobject;Verblijfsobject in gebruik;39;1;0363010000783140;122021;487635;4.902900;52.375595;0;0;0;0;0;0;0;0;0;1;0;1;0363100012182439;4;0;67;;39;2.28;Pand in gebruik;1939;1011AH-103-0-H-0363300000004577;1011AH-103-0-H;1;0;4
Prins Hendrikkade;;0363300000004577;104;A;;1011AJ;0363200000448059;Amsterdam;1024;Amsterdam;0363;Noord-Holland;27;0;Verblijfsobject;Verblijfsobject in gebruik;173;1;0363010000952402;122019;487628;4.902871;52.375532;1;0;0;0;0;0;0;0;0;0;0;1;0363100012182438;4;0;157;Appartement;54;1.12;Pand in gebruik;1005;1011AJ-104-A-0-0363300000004577;1011AJ-104-A-0;1;0;1
Prins Hendrikkade;;0363300000004577;104;B;;1011AJ;0363200000448060;Amsterdam;1024;Amsterdam;0363;Noord-Holland;27;0;Verblijfsobject;Verblijfsobject in gebruik;1;1;0363010000783145;122019;487628;4.902871;52.375532;1;0;0;0;0;0;0;0;0;0;0;1;0363100012182438;4;0;157;Appartement;54;1.12;Pand in gebruik;1005;1011AJ-104-B-0-0363300000004577;1011AJ-104-B-0;1;0;2
Prins Hendrikkade;;0363300000004577;104;C;;1011AJ;0363200000448061;Amsterdam;1024;Amsterdam;0363;Noord-Holland;27;0;Verblijfsobject;Verblijfsobject in gebruik;1;1;0363010000952404;122017;487631;4.902841;52.375559;1;0;0;0;0;0;0;0;0;0;0;1;0363100012182438;4;0;157;Appartement;54;1.12;Pand in gebruik;1005;1011AJ-104-C-0-0363300000004577;1011AJ-104-C-0;1;0;3
Prins Hendrikkade;;0363300000004577;104;D;;1011AJ;0363200000448062;Amsterdam;1024;Amsterdam;0363;Noord-Holland;27;0;Verblijfsobject;Verblijfsobject in gebruik;1;1;0363010000952405;122017;487629;4.902841;52.375541;1;0;0;0;0;0;0;0;0;0;0;1;0363100012182438;4;0;157;Appartement;54;1.12;Pand in gebruik;1005;1011AJ-104-D-0-0363300000004577;1011AJ-104-D-0;1;0;4
Prins Hendrikkade;;0363300000004577;105;;1;1011AJ;0363200000242867;Amsterdam;1024;Amsterdam;0363;Noord-Holland;27;0;Verblijfsobject;Verblijfsobject in gebruik;57;1;0363010000783148;122018;487620;4.902857;52.375460;1;0;0;0;0;0;0;0;0;0;0;1;0363100012182444;3;0;111;Appartement;46;2.95;Pand in gebruik;1005;1011AJ-105-0-1-0363300000004577;1011AJ-105-0-1;1;0;1
Prins Hendrikkade;;0363300000004577;105;;2;1011AJ;0363200000242868;Amsterdam;1024;Amsterdam;0363;Noord-Holland;27;0;Verblijfsobject;Verblijfsobject in gebruik;52;1;0363010000783149;122018;487620;4.902857;52.375460;1;0;0;0;0;0;0;0;0;0;0;1;0363100012182444;3;0;111;Appartement;46;2.95;Pand in gebruik;1005;1011AJ-105-0-2-0363300000004577;1011AJ-105-0-2;1;0;2
Prins Hendrikkade;;0363300000004577;105;;H;1011AJ;0363200000516494;Amsterdam;1024;Amsterdam;0363;Noord-Holland;27;0;Verblijfsobject;Verblijfsobject in gebruik;218;1;0363010001027587;122018;487620;4.902857;52.375460;1;0;0;0;0;0;0;0;0;0;0;1;0363100012182444;3;0;111;Appartement;46;2.95;Pand in gebruik;1005;1011AJ-105-0-H-0363300000004577;1011AJ-105-0-H;1;0;3
Prins Hendrikkade;;0363300000004577;106;A;;1011AJ;0363200000533478;Amsterdam;1024;Amsterdam;0363;Noord-Holland;27;0;Verblijfsobject;Verblijfsobject in gebruik;1;2;0363010001163102;122016;487613;4.902828;52.375397;0;1;0;0;0;0;0;0;0;0;0;1;0363100012182442;9;0;226;;91;2.31;Pand in gebruik;1005;1011AJ-106-A-0-0363300000004577;1011AJ-106-A-0;1;0;4
Prins Hendrikkade;;0363300000004577;106;B;;1011AJ;0363200000533479;Amsterdam;1024;Amsterdam;0363;Noord-Holland;27;0;Verblijfsobject;Verblijfsobject in gebruik;118;1;0363010001163097;122015;487614;4.902814;52.375406;1;0;0;0;0;0;0;0;0;0;0;1;0363100012182442;9;0;226;Appartement;91;2.31;Pand in gebruik;1005;1011AJ-106-B-0-0363300000004577;1011AJ-106-B-0;1;0;1
Prins Hendrikkade;;0363300000004577;106;C;;1011AJ;0363200000533480;Amsterdam;1024;Amsterdam;0363;Noord-Holland;27;0;Verblijfsobject;Verblijfsobject in gebruik;70;1;0363010001163098;122014;487615;4.902799;52.375415;1;0;0;0;0;0;0;0;0;0;0;1;0363100012182442;9;0;226;Appartement;91;2.31;Pand in gebruik;1005;1011AJ-106-C-0-0363300000004577;1011AJ-106-C-0;1;0;2
Prins Hendrikkade;;0363300000004577;106;D;;1011AJ;0363200000533481;Amsterdam;1024;Amsterdam;0363;Noord-Holland;27;0;Verblijfsobject;Verblijfsobject in gebruik;57;1;0363010001163099;122013;487616;4.902784;52.375424;1;0;0;0;0;0;0;0;0;0;0;1;0363100012182442;9;0;226;Appartement;91;2.31;Pand in gebruik;1005;1011AJ-106-D-0-0363300000004577;1011AJ-106-D-0;1;0;3
Prins Hendrikkade;;0363300000004577;107;;1;1011AJ;0363200000417605;Amsterdam;1024;Amsterdam;0363;Noord-Holland;27;0;Verblijfsobject;Verblijfsobject in gebruik;179;1;0363010000783153;122014;487605;4.902800;52.375325;1;0;0;0;0;0;0;0;0;0;0;1;0363100012182443;4;0;124;Appartement;50;2.79;Pand in gebruik;1005;1011AJ-107-0-1-0363300000004577;1011AJ-107-0-1;1;0;1
Prins Hendrikkade;;0363300000004577;107;;2;1011AJ;0363200000242874;Amsterdam;1024;Amsterdam;0363;Noord-Holland;27;0;Verblijfsobject;Verblijfsobject in gebruik;1;1;0363010000966715;122014;487605;4.902800;52.375325;0;0;0;0;0;0;0;0;0;0;1;1;0363100012182443;4;0;124;;50;2.79;Pand in gebruik;1005;1011AJ-107-0-2-0363300000004577;1011AJ-107-0-2;1;0;4
Prins Hendrikkade;;0363300000004577;107;;3;1011AJ;0363200000242875;Amsterdam;1024;Amsterdam;0363;Noord-Holland;27;0;Verblijfsobject;Verblijfsobject in gebruik;64;1;0363010000783154;122014;487605;4.902800;52.375325;1;0;0;0;0;0;0;0;0;0;0;1;0363100012182443;4;0;124;Appartement;50;2.79;Pand in gebruik;1005;1011AJ-107-0-3-0363300000004577;1011AJ-107-0-3;1;0;2
Prins Hendrikkade;;0363300000004577;107;;H;1011AJ;0363200000242873;Amsterdam;1024;Amsterdam;0363;Noord-Holland;27;0;Verblijfsobject;Verblijfsobject in gebruik;102;1;0363010000783152;122014;487605;4.902800;52.375325;1;0;0;0;0;0;0;0;0;0;0;1;0363100012182443;4;0;124;Appartement;50;2.79;Pand in gebruik;1005;1011AJ-107-0-H-0363300000004577;1011AJ-107-0-H;1;0;3
Prins Hendrikkade;;0363300000004577;108;;;1011AK;0363200000537321;Amsterdam;1024;Amsterdam;0363;Noord-Holland;27;0;Verblijfsobject;Verblijfsobject in gebruik;13400;6;0363010001166710;122087;487529;4.903879;52.374647;0;0;0;0;0;0;1;0;0;0;0;1;0363100012182187;6;0;2478;;235;32.45;Pand in gebruik;1916;1011AK-108-0-0-0363300000004577;1011AK-108-0-0;1;1;1
Prins Hendrikkade;;0363300000004577;114;;;1011AK;0363200000537322;Amsterdam;1024;Amsterdam;0363;Noord-Holland;27;1;Verblijfsobject;Verblijfsobject in gebruik;13400;6;0363010001166710;122087;487529;4.903879;52.374647;0;0;0;0;0;0;1;0;0;0;0;1;0363100012182187;6;0;2478;;235;32.45;Pand in gebruik;1916;1011AK-114-0-0-0363300000004577;1011AK-114-0-0;1;1;1
Houtkopersdwarsstraat;;0363300000003601;4;;;1011AL;0363200000135455;Amsterdam;1024;Amsterdam;0363;Noord-Holland;27;0;Verblijfsobject;Verblijfsobject in gebruik;1;2;0363010000862942;121951;486883;4.901946;52.368833;0;1;0;0;0;0;0;0;0;0;0;1;0363100012165554;69;0;1218;;164;3.62;Pand in gebruik;1900;1011AL-4-0-0-0363300000003601;1011AL-4-0-0;1;1;1
Houtkopersdwarsstraat;;0363300000003601;6;;;1011AL;0363200000464681;Amsterdam;1024;Amsterdam;0363;Noord-Holland;27;0;Verblijfsobject;Verblijfsobject in gebruik;167;1;0363010000957773;121956;486881;4.902019;52.368815;0;0;0;0;0;1;0;0;0;0;0;1;0363100012165554;69;0;1218;;164;3.62;Pand in gebruik;1900;1011AL-6-0-0-0363300000003601;1011AL-6-0-0;1;1;1
Prins Hendrikkade;;0363300000004577;120;;;1011AM;0363200000242878;Amsterdam;1024;Amsterdam;0363;Noord-Holland;27;0;Verblijfsobject;Verblijfsobject in gebruik;492;1;0363010000783155;122145;487481;4.904736;52.374219;0;0;0;0;0;1;0;0;0;0;0;1;0363100012182190;1;1;97;;44;5.07;Pand in gebruik;1005;1011AM-120-0-0-0363300000004577;1011AM-120-0-0;1;1;1
Prins Hendrikkade;;0363300000004577;121;;2;1011AM;0363200000242880;Amsterdam;1024;Amsterdam;0363;Noord-Holland;27;0;Verblijfsobject;Verblijfsobject in gebruik;1;1;0363010000783158;122150;487476;4.904810;52.374174;1;0;0;0;0;0;0;0;0;0;0;1;0363100012170453;2;0;95;Appartement;50;0.02;Pand in gebruik;1675;1011AM-121-0-2-0363300000004577;1011AM-121-0-2;1;0;1
Prins Hendrikkade;;0363300000004577;121;;H;1011AM;0363200000242879;Amsterdam;1024;Amsterdam;0363;Noord-Holland;27;0;Verblijfsobject;Verblijfsobject in gebruik;1;1;0363010000783156;122150;487476;4.904810;52.374174;1;1;0;0;0;0;0;0;0;0;0;1;0363100012170453;2;0;95;Appartement;50;0.02;Pand in gebruik;1675;1011AM-121-0-H-0363300000004577;1011AM-121-0-H;1;0;2
Prins Hendrikkade;;0363300000004577;122;A;;1011AM;0363200000479615;Amsterdam;1024;Amsterdam;0363;Noord-Holland;27;0;Verblijfsobject;Verblijfsobject in gebruik;1;1;0363010000995585;122154;487473;4.904869;52.374147;1;0;0;0;0;0;0;0;0;0;0;1;0363100012170457;4;0;144;Appartement;68;0.03;Pand in gebruik;1005;1011AM-122-A-0-0363300000004577;1011AM-122-A-0;1;0;1
